start=new Date('2022-04-18T00:00:00.000Z').valueOf();
sats=[{"CENTER_NAME":"EARTH","TLE_LINE2":"2 45190  53.0551 270.0644 0002176  39.7970 320.3179 15.06398776120970","MEAN_MOTION_DOT":"0.00000998","REF_FRAME":"TEME","PERIOD":"95.592","COUNTRY_CODE":"US","SEMIMAJOR_AXIS":"6925.352","REV_AT_EPOCH":"12097","TIME_SYSTEM":"UTC","LAUNCH_DATE":"2020-02-17","NORAD_CAT_ID":"45190","APOAPSIS":"548.724","BSTAR":"0.00008592100000","MEAN_MOTION":"15.06398776","RCS_SIZE":"LARGE","OBJECT_NAME":"STARLINK-1234","CLASSIFICATION_TYPE":"U","SITE":"AFETR","EPOCH":"2022-04-17T17:26:26.899008","TLE_LINE1":"1 45190U 20012N   22107.72670022  .00000998  00000-0  85921-4 0  9997","ARG_OF_PERICENTER":"39.7970","RA_OF_ASC_NODE":"270.0644","OBJECT_TYPE":"PAYLOAD","EPHEMERIS_TYPE":"0","ECCENTRICITY":"0.00021760","MEAN_MOTION_DDOT":"0.0000000000000","OBJECT_ID":"2020-012N","PERIAPSIS":"545.710","MEAN_ANOMALY":"320.3179","INCLINATION":"53.0551","MEAN_ELEMENT_THEORY":"SGP4","FILE":"3405839","DECAY_DATE":null,"GP_ID":"201492379","ELEMENT_SET_NO":"999"},{"PERIAPSIS":"546.050","MEAN_ANOMALY":"296.6260","MEAN_MOTION_DDOT":"0.0000000000000","ECCENTRICITY":"0.00017600","OBJECT_ID":"2020-012P","ELEMENT_SET_NO":"999","MEAN_ELEMENT_THEORY":"SGP4","INCLINATION":"53.0550","GP_ID":"201492629","FILE":"3405839","DECAY_DATE":null,"CLASSIFICATION_TYPE":"U","SITE":"AFETR","RCS_SIZE":"LARGE","OBJECT_NAME":"STARLINK-1236","OBJECT_TYPE":"PAYLOAD","RA_OF_ASC_NODE":"309.5138","ARG_OF_PERICENTER":"63.4910","EPHEMERIS_TYPE":"0","TLE_LINE1":"1 45191U 20012P   22107.84835142  .00007217  00000-0  50315-3 0  9996","EPOCH":"2022-04-17T20:21:37.562688","TIME_SYSTEM":"UTC","LAUNCH_DATE":"2020-02-17","APOAPSIS":"548.488","NORAD_CAT_ID":"45191","SEMIMAJOR_AXIS":"6925.404","REV_AT_EPOCH":"11774","MEAN_MOTION":"15.06381947","BSTAR":"0.00050315000000","TLE_LINE2":"2 45191  53.0550 309.5138 0001760  63.4910 296.6260 15.06381947117741","CENTER_NAME":"EARTH","PERIOD":"95.593","COUNTRY_CODE":"US","MEAN_MOTION_DOT":"0.00007217","REF_FRAME":"TEME"},{"EPOCH":"2022-04-17T19:44:27.964896","TLE_LINE1":"1 45192U 20012Q   22107.82254589  .00018797  00000-0  12776-2 0  9998","EPHEMERIS_TYPE":"0","ARG_OF_PERICENTER":"58.0623","RA_OF_ASC_NODE":"309.6167","OBJECT_TYPE":"PAYLOAD","OBJECT_NAME":"STARLINK-1237","RCS_SIZE":"LARGE","SITE":"AFETR","CLASSIFICATION_TYPE":"U","FILE":"3405839","DECAY_DATE":null,"GP_ID":"201493872","INCLINATION":"53.0523","MEAN_ELEMENT_THEORY":"SGP4","ELEMENT_SET_NO":"999","OBJECT_ID":"2020-012Q","ECCENTRICITY":"0.00014930","MEAN_MOTION_DDOT":"0.0000000000000","MEAN_ANOMALY":"302.0511","PERIAPSIS":"546.196","REF_FRAME":"TEME","MEAN_MOTION_DOT":"0.00018797","COUNTRY_CODE":"US","PERIOD":"95.592","CENTER_NAME":"EARTH","TLE_LINE2":"2 45192  53.0523 309.6167 0001493  58.0623 302.0511 15.06394674120532","BSTAR":"0.00127760000000","MEAN_MOTION":"15.06394674","SEMIMAJOR_AXIS":"6925.365","REV_AT_EPOCH":"12053","NORAD_CAT_ID":"45192","APOAPSIS":"548.264","LAUNCH_DATE":"2020-02-17","TIME_SYSTEM":"UTC"},{"OBJECT_TYPE":"PAYLOAD","RA_OF_ASC_NODE":"309.3786","ARG_OF_PERICENTER":"57.7719","EPHEMERIS_TYPE":"0","EPOCH":"2022-04-17T21:04:05.671488","TLE_LINE1":"1 45193U 20012R   22107.87784342 -.00001788  00000-0 -10118-3 0  9992","CLASSIFICATION_TYPE":"U","SITE":"AFETR","RCS_SIZE":"LARGE","OBJECT_NAME":"STARLINK-1239","ELEMENT_SET_NO":"999","MEAN_ELEMENT_THEORY":"SGP4","INCLINATION":"53.0554","GP_ID":"201493629","DECAY_DATE":null,"FILE":"3405839","PERIAPSIS":"546.041","MEAN_ANOMALY":"302.3438","MEAN_MOTION_DDOT":"0.0000000000000","ECCENTRICITY":"0.00017360","OBJECT_ID":"2020-012R","PERIOD":"95.593","COUNTRY_CODE":"US","MEAN_MOTION_DOT":"-0.00001788","REF_FRAME":"TEME","TLE_LINE2":"2 45193  53.0554 309.3786 0001736  57.7719 302.3438 15.06390329120481","CENTER_NAME":"EARTH","MEAN_MOTION":"15.06390329","BSTAR":"-0.00010118000000","LAUNCH_DATE":"2020-02-17","TIME_SYSTEM":"UTC","APOAPSIS":"548.445","NORAD_CAT_ID":"45193","SEMIMAJOR_AXIS":"6925.378","REV_AT_EPOCH":"12048"},{"REV_AT_EPOCH":"12043","SEMIMAJOR_AXIS":"6925.358","APOAPSIS":"548.588","NORAD_CAT_ID":"45194","LAUNCH_DATE":"2020-02-17","TIME_SYSTEM":"UTC","BSTAR":"0.00056337000000","MEAN_MOTION":"15.06396773","CENTER_NAME":"EARTH","TLE_LINE2":"2 45194  53.0541 309.3730 0001971  49.4844 310.6316 15.06396773120436","REF_FRAME":"TEME","MEAN_MOTION_DOT":"0.00008119","COUNTRY_CODE":"US","PERIOD":"95.592","OBJECT_ID":"2020-012S","ECCENTRICITY":"0.00019710","MEAN_MOTION_DDOT":"0.0000000000000","MEAN_ANOMALY":"310.6316","PERIAPSIS":"545.858","DECAY_DATE":null,"FILE":"3405839","GP_ID":"201492871","INCLINATION":"53.0541","MEAN_ELEMENT_THEORY":"SGP4","ELEMENT_SET_NO":"999","OBJECT_NAME":"STARLINK-1240","RCS_SIZE":"LARGE","SITE":"AFETR","CLASSIFICATION_TYPE":"U","EPOCH":"2022-04-17T21:09:23.597568","TLE_LINE1":"1 45194U 20012S   22107.88152312  .00008119  00000-0  56337-3 0  9996","EPHEMERIS_TYPE":"0","RA_OF_ASC_NODE":"309.3730","ARG_OF_PERICENTER":"49.4844","OBJECT_TYPE":"PAYLOAD"},{"CENTER_NAME":"EARTH","TLE_LINE2":"2 45195  53.0532 309.2228 0002174 153.6491 206.4609 15.08026729120531","MEAN_MOTION_DOT":"0.00014368","REF_FRAME":"TEME","PERIOD":"95.489","COUNTRY_CODE":"US","REV_AT_EPOCH":"12053","SEMIMAJOR_AXIS":"6920.367","LAUNCH_DATE":"2020-02-17","TIME_SYSTEM":"UTC","APOAPSIS":"543.737","NORAD_CAT_ID":"45195","BSTAR":"0.00093943000000","MEAN_MOTION":"15.08026729","RCS_SIZE":"LARGE","OBJECT_NAME":"STARLINK-1241","CLASSIFICATION_TYPE":"U","SITE":"AFETR","TLE_LINE1":"1 45195U 20012T   22107.84700608  .00014368  00000-0  93943-3 0  9997","EPOCH":"2022-04-17T20:19:41.325312","OBJECT_TYPE":"PAYLOAD","RA_OF_ASC_NODE":"309.2228","ARG_OF_PERICENTER":"153.6491","EPHEMERIS_TYPE":"0","MEAN_MOTION_DDOT":"0.0000000000000","ECCENTRICITY":"0.00021740","OBJECT_ID":"2020-012T","PERIAPSIS":"540.728","MEAN_ANOMALY":"206.4609","MEAN_ELEMENT_THEORY":"SGP4","INCLINATION":"53.0532","GP_ID":"201493121","DECAY_DATE":null,"FILE":"3405839","ELEMENT_SET_NO":"999"},{"ELEMENT_SET_NO":"999","MEAN_ELEMENT_THEORY":"SGP4","INCLINATION":"53.0566","GP_ID":"201493381","DECAY_DATE":null,"FILE":"3405839","PERIAPSIS":"546.144","MEAN_ANOMALY":"303.2587","MEAN_MOTION_DDOT":"0.0000000000000","ECCENTRICITY":"0.00015880","OBJECT_ID":"2020-012U","OBJECT_TYPE":"PAYLOAD","ARG_OF_PERICENTER":"56.8554","RA_OF_ASC_NODE":"309.4418","EPHEMERIS_TYPE":"0","EPOCH":"2022-04-17T20:42:52.388640","TLE_LINE1":"1 45196U 20012U   22107.86310635  .00003046  00000-0  22337-3 0  9997","CLASSIFICATION_TYPE":"U","SITE":"AFETR","RCS_SIZE":"LARGE","OBJECT_NAME":"STARLINK-1244","MEAN_MOTION":"15.06390035","BSTAR":"0.00022337000000","TIME_SYSTEM":"UTC","LAUNCH_DATE":"2020-02-17","NORAD_CAT_ID":"45196","APOAPSIS":"548.344","REV_AT_EPOCH":"12058","SEMIMAJOR_AXIS":"6925.379","PERIOD":"95.593","COUNTRY_CODE":"US","MEAN_MOTION_DOT":"0.00003046","REF_FRAME":"TEME","TLE_LINE2":"2 45196  53.0566 309.4418 0001588  56.8554 303.2587 15.06390035120582","CENTER_NAME":"EARTH"},{"TLE_LINE1":"1 45197U 20012V   22107.85204931  .00003681  00000-0  26611-3 0  9992","EPOCH":"2022-04-17T20:26:57.060384","ARG_OF_PERICENTER":"66.2638","RA_OF_ASC_NODE":"309.4975","OBJECT_TYPE":"PAYLOAD","EPHEMERIS_TYPE":"0","RCS_SIZE":"LARGE","OBJECT_NAME":"STARLINK-1269","CLASSIFICATION_TYPE":"U","SITE":"AFETR","INCLINATION":"53.0559","MEAN_ELEMENT_THEORY":"SGP4","FILE":"3405839","DECAY_DATE":null,"GP_ID":"201494121","ELEMENT_SET_NO":"999","ECCENTRICITY":"0.00017630","MEAN_MOTION_DDOT":"0.0000000000000","OBJECT_ID":"2020-012V","PERIAPSIS":"546.088","MEAN_ANOMALY":"293.8536","MEAN_MOTION_DOT":"0.00003681","REF_FRAME":"TEME","PERIOD":"95.594","COUNTRY_CODE":"US","CENTER_NAME":"EARTH","TLE_LINE2":"2 45197  53.0559 309.4975 0001763  66.2638 293.8536 15.06369013120508","BSTAR":"0.00026611000000","MEAN_MOTION":"15.06369013","REV_AT_EPOCH":"12050","SEMIMAJOR_AXIS":"6925.444","TIME_SYSTEM":"UTC","LAUNCH_DATE":"2020-02-17","APOAPSIS":"548.529","NORAD_CAT_ID":"45197"},{"OBJECT_NAME":"STARLINK-1154","RCS_SIZE":"LARGE","SITE":"AFETR","CLASSIFICATION_TYPE":"U","EPOCH":"2022-04-17T18:38:07.542816","TLE_LINE1":"1 45198U 20012W   22107.77647619 -.00001661  00000-0 -92655-4 0  9998","EPHEMERIS_TYPE":"0","OBJECT_TYPE":"PAYLOAD","RA_OF_ASC_NODE":"289.8272","ARG_OF_PERICENTER":"56.7015","OBJECT_ID":"2020-012W","MEAN_MOTION_DDOT":"0.0000000000000","ECCENTRICITY":"0.00015170","MEAN_ANOMALY":"303.4119","PERIAPSIS":"546.218","GP_ID":"201492380","FILE":"3405839","DECAY_DATE":null,"MEAN_ELEMENT_THEORY":"SGP4","INCLINATION":"53.0538","ELEMENT_SET_NO":"999","CENTER_NAME":"EARTH","TLE_LINE2":"2 45198  53.0538 289.8272 0001517  56.7015 303.4119 15.06382059120743","REF_FRAME":"TEME","MEAN_MOTION_DOT":"-0.00001661","COUNTRY_CODE":"US","PERIOD":"95.593","REV_AT_EPOCH":"12074","SEMIMAJOR_AXIS":"6925.404","NORAD_CAT_ID":"45198","APOAPSIS":"548.319","LAUNCH_DATE":"2020-02-17","TIME_SYSTEM":"UTC","BSTAR":"-0.00009265500000","MEAN_MOTION":"15.06382059"},{"RCS_SIZE":"LARGE","OBJECT_NAME":"STARLINK-1197","CLASSIFICATION_TYPE":"U","SITE":"AFETR","TLE_LINE1":"1 45199U 20012X   22107.71381397 -.00000998  00000-0 -48099-4 0  9996","EPOCH":"2022-04-17T17:07:53.527008","OBJECT_TYPE":"PAYLOAD","ARG_OF_PERICENTER":"75.9797","RA_OF_ASC_NODE":"290.1058","EPHEMERIS_TYPE":"0","MEAN_MOTION_DDOT":"0.0000000000000","ECCENTRICITY":"0.00014230","OBJECT_ID":"2020-012X","PERIAPSIS":"546.272","MEAN_ANOMALY":"284.1350","MEAN_ELEMENT_THEORY":"SGP4","INCLINATION":"53.0541","GP_ID":"201492630","FILE":"3405839","DECAY_DATE":null,"ELEMENT_SET_NO":"999","CENTER_NAME":"EARTH","TLE_LINE2":"2 45199  53.0541 290.1058 0001423  75.9797 284.1350 15.06385680120791","MEAN_MOTION_DOT":"-0.00000998","REF_FRAME":"TEME","PERIOD":"95.593","COUNTRY_CODE":"US","REV_AT_EPOCH":"12079","SEMIMAJOR_AXIS":"6925.392","LAUNCH_DATE":"2020-02-17","TIME_SYSTEM":"UTC","APOAPSIS":"548.243","NORAD_CAT_ID":"45199","BSTAR":"-0.00004809900000","MEAN_MOTION":"15.06385680"}];
